[{"OBJECT_NAME":"IRIDIUM 165","OBJECT_ID":"2018-061D","EPOCH":"2026-03-09T12:28:22.404000","MEAN_MOTION":14.34217296,"ECCENTRICITY":0.00020877,"INCLINATION":86.3917,"RA_OF_ASC_NODE":98.4934,"ARG_OF_PERICENTER":96.9181,"MEAN_ANOMALY":263.2252,"EPHEMERIS_TYPE":0,"CLASSIFICATION_TYPE":"U","NORAD_CAT_ID":43572,"ELEMENT_SET_NO":999,"REV_AT_EPOCH":39910,"BSTAR":7.29473e-7,"MEAN_MOTION_DOT":2.2e-7,"MEAN_MOTION_DDOT":0},{"OBJECT_NAME":"THORAD DELTA 1 DEB","OBJECT_ID":"1974-089BG","EPOCH":"2026-03-09T08:54:32.650272","MEAN_MOTION":13.851226,"ECCENTRICITY":0.03088786,"INCLINATION":102.0633,"RA_OF_ASC_NODE":213.5136,"ARG_OF_PERICENTER":328.3994,"MEAN_ANOMALY":29.8924,"EPHEMERIS_TYPE":0,"CLASSIFICATION_TYPE":"U","NORAD_CAT_ID":8299,"ELEMENT_SET_NO":999,"REV_AT_EPOCH":45964,"BSTAR":0.0011339853,"MEAN_MOTION_DOT":1.796e-5,"MEAN_MOTION_DDOT":0}]
